{
  "type": "FeatureCollection",
  "features": [
    {
      "type": "Feature",
      "properties": {
        "image": "photos/IMG_3192.jpeg",
        "caption": "IMG_3192.jpeg",
        "marker": "Markers/Hiker.svg"
      },
      "geometry": {
        "type": "Point",
        "coordinates": [
          -72.9584888888889,
          43.30730833333333
        ]
      }
    },
    {
      "type": "Feature",
      "properties": {
        "image": "photos/IMG_3851.jpeg",
        "caption": "IMG_3851.jpeg",
        "marker": "Markers/Hiker.svg"
      },
      "geometry": {
        "type": "Point",
        "coordinates": [
          -83.5205388888889,
          35.56536944444444
        ]
      }
    },
    {
      "type": "Feature",
      "properties": {
        "image": "photos/IMG_3931.jpeg",
        "caption": "IMG_3931.jpeg",
        "marker": "Markers/Hiker.svg"
      },
      "geometry": {
        "type": "Point",
        "coordinates": [
          -82.49017222222223,
          35.98976944444445
        ]
      }
    },
    {
      "type": "Feature",
      "properties": {
        "image": "photos/IMG_4254.jpeg",
        "caption": "IMG_4254.jpeg",
        "marker": "Markers/Hiker.svg"
      },
      "geometry": {
        "type": "Point",
        "coordinates": [
          -84.24931388888889,
          34.55772777777778
        ]
      }
    },
    {
      "type": "Feature",
      "properties": {
        "image": "photos/IMG_4482.jpeg",
        "caption": "IMG_4482.jpeg",
        "marker": "Markers/Hiker.svg"
      },
      "geometry": {
        "type": "Point",
        "coordinates": [
          -76.66036111111111,
          40.28829444444444
        ]
      }
    },
    {
      "type": "Feature",
      "properties": {
        "image": "photos/IMG_4549.jpeg",
        "caption": "IMG_4549.jpeg",
        "marker": "Markers/Hiker.svg"
      },
      "geometry": {
        "type": "Point",
        "coordinates": [
          -79.39103055555556,
          37.596536111111114
        ]
      }
    },
    {
      "type": "Feature",
      "properties": {
        "image": "photos/IMG_4619.jpeg",
        "caption": "IMG_4619.jpeg",
        "marker": "Markers/Hiker.svg"
      },
      "geometry": {
        "type": "Point",
        "coordinates": [
          -77.95294166666667,
          39.15980833333333
        ]
      }
    },
    {
      "type": "Feature",
      "properties": {
        "image": "photos/IMG_4637.jpeg",
        "caption": "IMG_4637.jpeg",
        "marker": "Markers/Hiker.svg"
      },
      "geometry": {
        "type": "Point",
        "coordinates": [
          -77.74059166666667,
          39.32564444444445
        ]
      }
    },
    {
      "type": "Feature",
      "properties": {
        "image": "photos/IMG_4730.jpeg",
        "caption": "IMG_4730.jpeg",
        "marker": "Markers/Hiker.svg"
      },
      "geometry": {
        "type": "Point",
        "coordinates": [
          -74.16719722222223,
          41.29470555555555
        ]
      }
    },
    {
      "type": "Feature",
      "properties": {
        "image": "photos/IMG_4736.jpeg",
        "caption": "IMG_4736.jpeg",
        "marker": "Markers/Hiker.svg"
      },
      "geometry": {
        "type": "Point",
        "coordinates": [
          -73.61189166666666,
          41.60261111111111
        ]
      }
    },
    {
      "type": "Feature",
      "properties": {
        "image": "photos/IMG_5002.jpeg",
        "caption": "IMG_5002.jpeg",
        "marker": "Markers/Hiker.svg"
      },
      "geometry": {
        "type": "Point",
        "coordinates": [
          -71.33702777777778,
          44.247527777777776
        ]
      }
    },
    {
      "type": "Feature",
      "properties": {
        "image": "photos/IMG_5247.jpeg",
        "caption": "IMG_5247.jpeg",
        "marker": "Markers/Hiker.svg"
      },
      "geometry": {
        "type": "Point",
        "coordinates": [
          -70.00223611111112,
          45.235644444444446
        ]
      }
    },
    {
      "type": "Feature",
      "properties": {
        "image": "photos/IMG_4201.jpeg",
        "caption": "IMG_4201.jpeg",
        "marker": "Markers/Mountain.svg"
      },
      "geometry": {
        "type": "Point",
        "coordinates": [
          -80.17353055555556,
          37.36078888888889
        ]
      }
    },
    {
      "type": "Feature",
      "properties": {
        "image": "photos/IMG_4210.jpeg",
        "caption": "IMG_4210.jpeg",
        "marker": "Markers/Mountain.svg"
      },
      "geometry": {
        "type": "Point",
        "coordinates": [
          -80.0373,
          37.392963888888886
        ]
      }
    },
    {
      "type": "Feature",
      "properties": {
        "image": "photos/IMG_4277.jpeg",
        "caption": "IMG_4277.jpeg",
        "marker": "Markers/Mountain.svg"
      },
      "geometry": {
        "type": "Point",
        "coordinates": [
          -83.93739444444445,
          34.74003611111111
        ]
      }
    },
    {
      "type": "Feature",
      "properties": {
        "image": "photos/IMG_4289.jpeg",
        "caption": "IMG_4289.jpeg",
        "marker": "Markers/Mountain.svg"
      },
      "geometry": {
        "type": "Point",
        "coordinates": [
          -83.69319166666666,
          34.79671388888889
        ]
      }
    },
    {
      "type": "Feature",
      "properties": {
        "image": "photos/IMG_4659.jpeg",
        "caption": "IMG_4659.jpeg",
        "marker": "Markers/Mountain.svg"
      },
      "geometry": {
        "type": "Point",
        "coordinates": [
          -77.47105277777779,
          39.81908055555556
        ]
      }
    },
    {
      "type": "Feature",
      "properties": {
        "image": "photos/IMG_4820.jpeg",
        "caption": "IMG_4820.jpeg",
        "marker": "Markers/Mountain.svg"
      },
      "geometry": {
        "type": "Point",
        "coordinates": [
          -72.81873333333333,
          43.60461388888889
        ]
      }
    },
    {
      "type": "Feature",
      "properties": {
        "image": "photos/IMG_4888.jpeg",
        "caption": "IMG_4888.jpeg",
        "marker": "Markers/Mountain.svg"
      },
      "geometry": {
        "type": "Point",
        "coordinates": [
          -71.83148055555556,
          44.023380555555555
        ]
      }
    },
    {
      "type": "Feature",
      "properties": {
        "image": "photos/IMG_5049.jpeg",
        "caption": "IMG_5049.jpeg",
        "marker": "Markers/Mountain.svg"
      },
      "geometry": {
        "type": "Point",
        "coordinates": [
          -71.303275,
          44.27049722222222
        ]
      }
    },
    {
      "type": "Feature",
      "properties": {
        "image": "photos/IMG_5124.jpeg",
        "caption": "IMG_5124.jpeg",
        "marker": "Markers/Mountain.svg"
      },
      "geometry": {
        "type": "Point",
        "coordinates": [
          -70.5047388888889,
          44.93648611111111
        ]
      }
    },
    {
      "type": "Feature",
      "properties": {
        "image": "photos/IMG_5223.jpeg",
        "caption": "IMG_5223.jpeg",
        "marker": "Markers/Mountain.svg"
      },
      "geometry": {
        "type": "Point",
        "coordinates": [
          -70.288025,
          45.14684722222222
        ]
      }
    },
    {
      "type": "Feature",
      "properties": {
        "image": "photos/IMG_5387.jpeg",
        "caption": "IMG_5387.jpeg",
        "marker": "Markers/Mountain.svg"
      },
      "geometry": {
        "type": "Point",
        "coordinates": [
          -68.92145555555555,
          45.90445277777778
        ]
      }
    },
    {
      "type": "Feature",
      "properties": {
        "image": "photos/IMG_3723.jpeg",
        "caption": "IMG_3723.jpeg",
        "marker": "Markers/Sign.svg"
      },
      "geometry": {
        "type": "Point",
        "coordinates": [
          -83.47783611111112,
          35.05565555555555
        ]
      }
    },
    {
      "type": "Feature",
      "properties": {
        "image": "photos/IMG_3810.jpeg",
        "caption": "IMG_3810.jpeg",
        "marker": "Markers/Sign.svg"
      },
      "geometry": {
        "type": "Point",
        "coordinates": [
          -83.80844166666667,
          35.452825000000004
        ]
      }
    },
    {
      "type": "Feature",
      "properties": {
        "image": "photos/IMG_3866.jpeg",
        "caption": "IMG_3866.jpeg",
        "marker": "Markers/Sign.svg"
      },
      "geometry": {
        "type": "Point",
        "coordinates": [
          -83.49869444444444,
          35.562875
        ]
      }
    },
    {
      "type": "Feature",
      "properties": {
        "image": "photos/IMG_3992.jpeg",
        "caption": "IMG_3992.jpeg",
        "marker": "Markers/Sign.svg"
      },
      "geometry": {
        "type": "Point",
        "coordinates": [
          -82.0114138888889,
          36.151916666666665
        ]
      }
    },
    {
      "type": "Feature",
      "properties": {
        "image": "photos/IMG_4093.jpeg",
        "caption": "IMG_4093.jpeg",
        "marker": "Markers/Sign.svg"
      },
      "geometry": {
        "type": "Point",
        "coordinates": [
          -81.53258611111112,
          36.65475555555555
        ]
      }
    },
    {
      "type": "Feature",
      "properties": {
        "image": "photos/IMG_4115.jpeg",
        "caption": "IMG_4115.jpeg",
        "marker": "Markers/Sign.svg"
      },
      "geometry": {
        "type": "Point",
        "coordinates": [
          -81.37520555555555,
          36.91233888888889
        ]
      }
    },
    {
      "type": "Feature",
      "properties": {
        "image": "photos/IMG_4129.jpeg",
        "caption": "IMG_4129.jpeg",
        "marker": "Markers/Sign.svg"
      },
      "geometry": {
        "type": "Point",
        "coordinates": [
          -81.017075,
          37.14741111111111
        ]
      }
    },
    {
      "type": "Feature",
      "properties": {
        "image": "photos/IMG_4270.jpeg",
        "caption": "IMG_4270.jpeg",
        "marker": "Markers/Sign.svg"
      },
      "geometry": {
        "type": "Point",
        "coordinates": [
          -78.62815833333333,
          38.30108611111111
        ]
      }
    },
    {
      "type": "Feature",
      "properties": {
        "image": "photos/IMG_4308.jpeg",
        "caption": "IMG_4308.jpeg",
        "marker": "Markers/Sign.svg"
      },
      "geometry": {
        "type": "Point",
        "coordinates": [
          -77.90340555555557,
          39.07011666666667
        ]
      }
    },
    {
      "type": "Feature",
      "properties": {
        "image": "photos/IMG_4394.jpeg",
        "caption": "IMG_4394.jpeg",
        "marker": "Markers/Sign.svg"
      },
      "geometry": {
        "type": "Point",
        "coordinates": [
          -77.36682222222221,
          40.028888888888886
        ]
      }
    },
    {
      "type": "Feature",
      "properties": {
        "image": "photos/IMG_4405.jpeg",
        "caption": "IMG_4405.jpeg",
        "marker": "Markers/Sign.svg"
      },
      "geometry": {
        "type": "Point",
        "coordinates": [
          -82.81063055555555,
          36.16478611111111
        ]
      }
    },
    {
      "type": "Feature",
      "properties": {
        "image": "photos/IMG_4488.jpeg",
        "caption": "IMG_4488.jpeg",
        "marker": "Markers/Sign.svg"
      },
      "geometry": {
        "type": "Point",
        "coordinates": [
          -76.29798055555555,
          40.509975
        ]
      }
    },
    {
      "type": "Feature",
      "properties": {
        "image": "photos/IMG_4566.jpeg",
        "caption": "IMG_4566.jpeg",
        "marker": "Markers/Sign.svg"
      },
      "geometry": {
        "type": "Point",
        "coordinates": [
          -74.34403888888889,
          41.19168611111111
        ]
      }
    },
    {
      "type": "Feature",
      "properties": {
        "image": "photos/IMG_4820.jpeg",
        "caption": "IMG_4820.jpeg",
        "marker": "Markers/Sign.svg"
      },
      "geometry": {
        "type": "Point",
        "coordinates": [
          -73.15555555555557,
          42.74383888888889
        ]
      }
    },
    {
      "type": "Feature",
      "properties": {
        "image": "photos/IMG_4876.jpeg",
        "caption": "IMG_4876.jpeg",
        "marker": "Markers/Sign.svg"
      },
      "geometry": {
        "type": "Point",
        "coordinates": [
          -72.29998055555555,
          43.703747222222226
        ]
      }
    },
    {
      "type": "Feature",
      "properties": {
        "image": "photos/IMG_5100.jpeg",
        "caption": "IMG_5100.jpeg",
        "marker": "Markers/Sign.svg"
      },
      "geometry": {
        "type": "Point",
        "coordinates": [
          -71.0215,
          44.48504166666667
        ]
      }
    },
    {
      "type": "Feature",
      "properties": {
        "image": "photos/IMG_5134.jpeg",
        "caption": "IMG_5134.jpeg",
        "marker": "Markers/Sign.svg"
      },
      "geometry": {
        "type": "Point",
        "coordinates": [
          -70.384225,
          45.05116944444444
        ]
      }
    },
    {
      "type": "Feature",
      "properties": {
        "image": "photos/IMG_3841.jpeg",
        "caption": "IMG_3841.jpeg",
        "marker": "Markers/View.svg"
      },
      "geometry": {
        "type": "Point",
        "coordinates": [
          -83.56617777777778,
          35.56477222222222
        ]
      }
    },
    {
      "type": "Feature",
      "properties": {
        "image": "photos/IMG_3853.jpeg",
        "caption": "IMG_3853.jpeg",
        "marker": "Markers/View.svg"
      },
      "geometry": {
        "type": "Point",
        "coordinates": [
          -83.51855555555555,
          35.56386111111111
        ]
      }
    },
    {
      "type": "Feature",
      "properties": {
        "image": "photos/IMG_4204.jpeg",
        "caption": "IMG_4204.jpeg",
        "marker": "Markers/View.svg"
      },
      "geometry": {
        "type": "Point",
        "coordinates": [
          -80.13453611111112,
          37.35673055555556
        ]
      }
    },
    {
      "type": "Feature",
      "properties": {
        "image": "photos/IMG_4221.jpeg",
        "caption": "IMG_4221.jpeg",
        "marker": "Markers/View.svg"
      },
      "geometry": {
        "type": "Point",
        "coordinates": [
          -79.93545555555556,
          37.40428611111111
        ]
      }
    },
    {
      "type": "Feature",
      "properties": {
        "image": "photos/IMG_4228.jpeg",
        "caption": "IMG_4228.jpeg",
        "marker": "Markers/View.svg"
      },
      "geometry": {
        "type": "Point",
        "coordinates": [
          -79.74926111111111,
          37.43136111111111
        ]
      }
    },
    {
      "type": "Feature",
      "properties": {
        "image": "photos/IMG_4322.jpeg",
        "caption": "IMG_4322.jpeg",
        "marker": "Markers/View.svg"
      },
      "geometry": {
        "type": "Point",
        "coordinates": [
          -77.74096666666667,
          39.31977777777778
        ]
      }
    },
    {
      "type": "Feature",
      "properties": {
        "image": "photos/IMG_4518.jpeg",
        "caption": "IMG_4518.jpeg",
        "marker": "Markers/View.svg"
      },
      "geometry": {
        "type": "Point",
        "coordinates": [
          -75.60431666666666,
          40.787280555555554
        ]
      }
    },
    {
      "type": "Feature",
      "properties": {
        "image": "photos/IMG_4533.jpeg",
        "caption": "IMG_4533.jpeg",
        "marker": "Markers/View.svg"
      },
      "geometry": {
        "type": "Point",
        "coordinates": [
          -75.04245,
          41.01493055555556
        ]
      }
    },
    {
      "type": "Feature",
      "properties": {
        "image": "photos/IMG_4546.jpeg",
        "caption": "IMG_4546.jpeg",
        "marker": "Markers/View.svg"
      },
      "geometry": {
        "type": "Point",
        "coordinates": [
          -74.6644888888889,
          41.31678333333333
        ]
      }
    },
    {
      "type": "Feature",
      "properties": {
        "image": "photos/IMG_4611.jpeg",
        "caption": "IMG_4611.jpeg",
        "marker": "Markers/View.svg"
      },
      "geometry": {
        "type": "Point",
        "coordinates": [
          -73.987975,
          41.32005555555556
        ]
      }
    },
    {
      "type": "Feature",
      "properties": {
        "image": "photos/IMG_4784.jpeg",
        "caption": "IMG_4784.jpeg",
        "marker": "Markers/View.svg"
      },
      "geometry": {
        "type": "Point",
        "coordinates": [
          -73.40967500000001,
          42.01333611111111
        ]
      }
    },
    {
      "type": "Feature",
      "properties": {
        "image": "photos/IMG_4844.jpeg",
        "caption": "IMG_4844.jpeg",
        "marker": "Markers/View.svg"
      },
      "geometry": {
        "type": "Point",
        "coordinates": [
          -83.15754722222223,
          35.76198333333333
        ]
      }
    }
  ]
}
